STARLINK-30274          
1 57672U 23124K   26068.67065007  .00000474  00000+0  28125-4 0  9998
2 57672  53.1597 207.0386 0000958  90.1599 269.9511 15.30190934143567
NUSAT-49 (KLARA DAN VO*)
1 60500U 24149AJ  26068.79810190  .00012912  00000+0  43568-3 0  9991
2 60500  97.3807 150.7380 0001132 286.7761  73.3356 15.30828857 86935
